School Name,Primary School,Physical Address,Postal Address,Email,Phone,Website,Management Name,Management Position,Management Email,Management Phone
Batchelor Area School,True,"71 Kirra Cres, Batchelor, 0845, NT","c/-, Batchelor Post Office, 0845, NT",batchelor.as@education.nt.gov.au,(08) 8976 0077,https://www.batchelorschool.com.au/,Sarah Filosi,Principal,sarah.filosi@education.nt.gov.au,(08) 8976 0077
Araluen Christian School,True,"10 Blain St, Alice Springs, NT","10 Blain Street, Alice Springs, 0870, NT",admin.acc@ntschools.net,(08) 8955 3300,http://www.acc.nt.edu.au,Damien Gainsford,Principal,damien.gainsford@ntschools.net,89550121
Anula Primary School,True,"73 Yanyula Dr, Anula, 0812, NT","Yanyula Drive, ANULA, 0812, NT",anula.admin@education.nt.gov.au,(08) 899 77500,http://www.anulaprimaryschool.com/,Kylie Robinson,Business Manager,kylie.robinson1@education.nt.gov.au,(08) 899 77500
Bakewell Primary School,True,"1 Forrest Parade, Bakewell, 0832, NT","PO Box 1300, PALMERSTON, 0831, NT",admin.bakewell@education.nt.gov.au,(08) 899 77400,http://www.bakewellprimary.nt.edu.au,Ali Brady,Principal,ali.brady@education.nt.gov.au,(08) 899 77400
Anula Pre School,False,"73 Yanyula Dr, Anula, NT",", , , ",,(08) 899 77500,,Ali Brady,Principal,ali.brady@education.nt.gov.au,(08) 899 77400
Bakewell Pre School,False,"5 Hutchison Tce, Bakewell, 0832, NT","tba, tba, 0832, ",,(08) 899 77400,,Ali Brady,Principal,ali.brady@education.nt.gov.au,(08) 899 77400
Areyonga School,True,"wsw of Hermannsburg, 224km from Alice Springs, Areyonga, NT","Areyonga, via Alice Springs, 0872, NT",areyonga.school@education.nt.gov.au,(08) 8956 7303,n/a,Toby Brown,Principal,toby.brown@education.nt.gov.au,(08) 8956 7303
Barunga School,True,"N/A, Barunga  (Bamyili), NT","PMB 117, via Katherine, 0851, NT",office.barunga@education.nt.gov.au,(08) 8975 4502,n/a,Malcolm Hales,Principal,malcolm.hales@education.nt.gov.au,(08) 8975 4502
Angurugu School,True,"N/A, Angurugu, NT","PO Box 40, Alyangula, Groote Eylandt, 0885, NT",admin.angurcec@education.nt.gov.au,(08) 8987 6355,n/a,Alessa Fremmer,Principal,alessa.fremmer@education.nt.gov.au,(08) 8987 6355
Angurugu Pre School,False,"N/A, Angurugu, NT",", , , ",,(08) 89876255,,Alessa Fremmer,Principal,alessa.fremmer@education.nt.gov.au,(08) 8987 6355
Australian International Islamic College,True,"25 Bowerlee Road, Berrimah NT 0828, NT","25 Bowerlee Road, Berrimah, 0828, NT",nt.admin@aiic.nt.edu.au,(03) 33721400,https://aiic.qld.edu.au/darwin-campus/,Andrew Taylor,Principal,andrew.taylor@aiic.qld.edu.au,(03) 33721400
Ampilatwatja School,True,"N/A, Ampilatwatja (Ammaroo), NT",", PMB 84, Alice Springs, 0872, NT",admin.ampilat@education.nt.gov.au,(08) 8956 9265,n/a,Ann Adams,Principal,ann.adams@education.nt.gov.au,(08) 8956 9265
Baniyala Garrangali School,True,"Yilpara Community, Yirrkala, 0880, NT","PO Box 1496, NHULUNBUY, 0881, NT",jane.munro@education.nt.gov.au,(08) 8987 9114,n/a,Jane Munro,Principal,jane.munro@education.nt.gov.au,(08) 8987 9114
Arlparra School,True,", Arlparra Community, Utopia, NT","PMB 18, via ALICE SPRINGS, 0872, NT",john.matthews@education.nt.gov.au,(08) 8956 9178,n/a,John Matthews,Principal,john.matthews@education.nt.gov.au,(08) 8956 9178
Amoonguna School,True,"N/A, Amoonguna, NT","PO Box  2529,, Alice Springs, 0871, NT",cherie.gibbens@education.nt.gov.au,(08) 8952 3402,n/a,Cherie Gibbens,Principal,cherie.gibbens@education.nt.gov.au,(08) 8952 3402
Zuccoli Primary School,True,"130 Zuccoli Parade, Zuccoli, 0830, NT","PO Box 2222, PALMERSTON, 0832, NT",ZuccoliPrimary@ntschools.net,(08) 792 30222,tba,Stacey Sephton,Business Manager,stacey.sephton@education.nt.gov.au,(08) 792 30222
Yuendumu Pre School,False,"Conniston Road, Yuendumu, NT",", , , ",,(08) 8956 4011,,Stacey Sephton,Business Manager,stacey.sephton@education.nt.gov.au,(08) 792 30222
Yirrkala School,True,"Rankine Road, Yirrkala, NT","PO Box 896, Nhulunbuy, 0881, NT",admin.yirrkala@ntschools.net,(08) 898 71988,n/a,Morganne Webb,Business Manager,morganne.webb@education.nt.gov.au,(08) 898 71988
Yirrkala Pre School,False,"Rankine Road, Yirrkala, NT",", , , ",,(08) 898 71988,,Morganne Webb,Business Manager,morganne.webb@education.nt.gov.au,(08) 898 71988
Amanbidji School,True,"N/A, Amanbidgi (Kildirk), NT","PMB 16, via Katherine, 0851, NT",Carolyn.tucker@education.nt.gov.au,(08) 9168 7380,n/a,Sally Watts,Business Manager,sally.watts@education.ntschools.net,(08) 897 25347
Yirara College,False,"470 South Stuart Highway, Alice Springs, NT","PMB 51, Alice Springs, 0871, NT",info@yirara.nt.edu.au,(08) 8950 5644,http://www.yirara.nt.edu.au/,Wesley Meurant,Principal,Principal@yirara.nt.edu.au,(08) 8950 5633
Yulara School,True,"21 Winmati St, Yulara, 0872, NT","PO Box 146, Yulara, 0872, NT",yulara.school@education.nt.gov.au,(08) 8956 2014,https://yularaschool.nt.edu.au/,Megan Stockley-smith,Principal,megan.stockley-smith@education.nt.gov.au,(08) 8956 2014
Yuendumu School,True,"Conniston Rd, Yuendumu, NT","C/ - Post Office, Yuendumu, 0870, NT",admin.yuendumu@education.nt.gov.au,(08) 8956 4011,http://www.yuendumuschool.nt.edu.au,Stephen Go,Business Manager,Stephen.go@education.nt.gov.au,(08) 8951 1620
Yipirinya School,True,"Lovegrove Dr, Alice Springs, NT","C/- Yipirinya School Council Inc, PO Box 2363, Alice Springs, 0871, NT",yipirinya@yipirinya.com.au,(08) 8952 5633,http://www.yipirinya.com.au/,Gavin Morris,Principal,principal.yipirinya@ntschools.net,8952 5633
Wurankuwu Homeland Learning Centre,True,"Community ID 868, Wurankuwu, NT","Nguiu, Bathurst Island, 0822, NT",tba,(08) 8978 3986,not available,Gavin Morris,Principal,principal.yipirinya@ntschools.net,8952 5633
Xavier CEC,False,"Kerinauia Hwy, Nguiu, NT","PMB 139,, via Winnellie, 0822, NT",admin.xcec@nt.catholic.edu.au,(08) 8978 3970,http://www.xcecnt.catholic.edu.au/,Rhett Bowden,Principal,rhett.bowden@nt.catholic.edu.au,08 89783970
Yarralin School,True,"N/A, Yarralin, NT","PMB 34, via Katherine, 0851, NT",zoe.richardson@education.nt.gov.au,(08) 8975 0809,n/a,Zoe Richardson,Principal,zoe.richardson@education.nt.gov.au,(08) 8975 0809
Wulagi Primary School,True,"24 Brolga St, Wulagi, 0812, NT","24 Brolga St, WULAGI, 0812, NT",wulagi.primary@education.nt.gov.au,(08) 898 37800,http://www.wulagiprimary.nt.edu.au/,Ramon Dixon,Principal,ramon.dixon@education.nt.gov.au,(08) 898 37800
Wulagi Pre School,False,"24 Brolga St, Wulagi, NT",", , , ",,(08) 898 37818,,Ramon Dixon,Principal,ramon.dixon@education.nt.gov.au,(08) 898 37800
Woolaning School,True,"Litchfield Park Rd, Litchfield Park, NT","PO Box 3261, Palmerston, 0831, NT",admin.woolasch@education.nt.gov.au,(08) 8978 2334,n/a,Nick Hancock,Principal,nicholas.hancock1@education.nt.gov.au,(08) 8978 2334
Woolianna School,True,"Wooliana Rd, Daly River, NT","PMB 194, Winnellie, 0821, NT",woolianna.school@education.nt.gov.au,(08) 8978 2984,http://www.wooliannaschool.nt.edu.au/,Sarah Rowe,Principal,sarah.rowe@education.nt.gov.au,(08) 8978 2984
Wugularr School,True,"Laiwanga St, Wugularr, NT","PMB 6, Katherine, 0851, NT",admin.wugulsch@education.nt.gov.au,(08) 8975 4529,n/a,Katrin Woolgar,Business Manager,katrin.woolgar@education.nt.gov.au,(08) 897 25351
Woodroffe Pre School,False,"55 Woodroffe Ave, Woodroffe, NT",", , , ",,(08) 8983 7611,,Katrin Woolgar,Business Manager,katrin.woolgar@education.nt.gov.au,(08) 897 25351
Willowra School,True,"N/A, Willowra, NT","PMB 102, via Alice Springs, 0872, NT",willowra.school@education.nt.gov.au,(08) 8956 8408,n/a,Barb Wilson,Principal,barb.wilson@education.nt.gov.au,(08) 8956 8408
Woodroffe Primary School,True,"55 Woodroffe Ave, Woodroffe, 0830, NT","PO Box 2021, PALMERSTON, 0831, NT",woodroffe.ps@education.nt.gov.au,(08) 898 37600,https://woodroffeps.nt.edu.au/ ,Kristy West,Principal,kristy.west@education.nt.gov.au,(08) 898 37600
Watiyawanu School,True,"N/A, Mt Liebig, NT","PMB 111, via Alice Springs, 0872, NT",l.kenny@education.nt.gov.au,(08) 8956 8555,n/a,Larry Kenny,Principal,l.kenny@education.nt.gov.au,(08) 8956 8555
Watarrka School,True,"n/a, Lilla Community, NT","Education Stores, Shed 9, 66A Smith St, Alice Springs, 0870, NT",tba,(08) 8956 7758,n/a,tba tba,Principal,tba,(08) 8956 7758
Wanguri Primary School,True,"46 Gsell St, Wanguri, 0810, NT","PO Box 40519, CASUARINA, 0811, NT",wanguri.prim@education.nt.gov.au,(08) 8927 1655,http://wanguriprimary.nt.edu.au,Robyn Nowland,Business Manager,robyn.nowland@education.nt.gov.au,(08) 8927 1655
Warruwi School,True,"N/A, Warruwi (Goulburn Island), 0822, NT","PMB 90, via WINNELLIE, 0821, NT",samuel.robinson@education.nt.gov.au,(08) 8979 0222,n/a,Samuel Robinson,Principal,samuel.robinson@education.nt.gov.au,(08) 8979 0222
Wanguri Pre School,False,"46 Gsell St, Wanguri, NT",", , , ",,(08) 8927 1655,,Samuel Robinson,Principal,samuel.robinson@education.nt.gov.au,(08) 8979 0222
Wallace Rockhole School,True,"N/A, Wallace Rockhole, NT","PO Box 2256, Alice Springs, 0871, NT",wallace.rockhole@education.nt.gov.au,(08) 8956 7330,n/a,Maryse Turenne,Principal,m.turenne@education.nt.gov.au,(08) 8956 7330
Walungurru School,True,"N/A, Walungurru (Kintore), NT","PMB 14, via Alice Springs, 0872, NT",walungurru.school@education.nt.gov.au,(08)  8964 6056,n/a,Tanith Margetson,Principal,tanith.margetson@education.nt.gov.au,(08) 8964 6056
Wagaman Primary School,True,"35 Wagaman Tce, Wagaman, 0810, NT","PO Box 40019, CASUARINA, 0811, NT",wagaman.school@education.nt.gov.au,(08) 8922 6011,http://www.wagamanprimary.nt.edu.au,Darnette Navidad,Business Manager,Darnette.Navidad@education.nt.gov.au,(08) 8922 6011
Wagaman Pre School,False,"35 Wagaman Tce, Wagaman, NT",", , , ",,(08) 8922 6011,,Darnette Navidad,Business Manager,Darnette.Navidad@education.nt.gov.au,(08) 8922 6011
Urapunga School,True,"Blyth St, Rittarangu (Urapunga), NT","PMB 12, via Katherine, 0852, NT",craig.watkins@education.nt.gov.au,(08) 8975 4645,n/a,Craig Watkins,Principal,craig.watkins@education.nt.gov.au,(08) 8975 4645
Top End School of Flexible Learning,False,"1 Malak Place, Malak, 0812, NT","PO Box 703, Karama, 0812, NT",malakrc.det@education.nt.gov.au,(08) 899 77199,n/a,Matt Watson,Principal,matt.watson@education.nt.gov.au,(08) 898 37924
Tiwi College,False,"Pickertaramoor Melville Island, , NT","LMB 127, Winnellie, 0822, NT",tiwi.college@ntschools.net,08 89709024,http://www.tiwicollege.com/,Greg Hollis,Principal,greg.hollis@ntschools.net,08 89709024
Tivendale School,False,"Tivendale Road, Berrimah, 0828, NT","PO Box 703, Karama, 0812, NT",samuel.woods@education.nt.gov.au,(08) 899 95910,n/a,Greg Hollis,Principal,greg.hollis@ntschools.net,08 89709024
Tipperary Station School,True,"Daly River Road, Tipperary, NT","PMB 214, via Winnellie, 0822, NT",carla.clough@education.nt.gov.au,(08) 8978 2765,n/a,Christie Kent,Business Manager,Christie.kent@education.nt.gov.au,(08) 890 14913
Tennant Creek Primary School,True,"31 Paterson St, Tennant Creek, 0860, NT","PO Box 506, Tennant Creek, 0861, NT",admin.tennasch@education.nt.gov.au,(08) 896 32424,n/a,Katrina Georgiou,Principal,katrina.georgiou@education.nt.gov.au,(08) 896 32424
Timber Creek School,True,"62 Wilson St, Timber Creek, NT","PMB 115, via Katherine, 0851, NT",timbercreek.admin@education.nt.gov.au,(08) 8975 0714,n/a,Merryn Curley,Principal,merryn.curley@education.nt.gov.au,(08) 8975 0714
Titjikala School,True,"N/A, Titjikala (Maryvale), NT","PMB 130, via Alice Springs, 0872, NT",jenny.jenkinson@education.nt.gov.au,(08) 8956 0927,n/a,Jenny Jenkinson,Principal,jenny.jenkinson@education.nt.gov.au,(08) 8956 0927
Ti Tree School,True,"26 Palmer St, Ti-Tree, NT","Locked Bag 257,, Ti Tree, via Alice Springs, 0872, NT",anthony.smith@education.nt.gov.au,(08) 8956 9743,n/a,Anthony Smith,Principal,anthony.smith@education.nt.gov.au,(08) 8956 9743
Tennant Creek High School,False,"38 Stuart St, Tennant Creek, NT","PO Box 546, Tennant Creek, 0861, NT",admin.tchs@education.nt.gov.au,(08) 8962 2102,n/a,Gavin Khan,Principal,gavin.khan@education.nt.gov.au,8962 2102
Taminmin College,False,"70 Challoner Cct, Humpty Doo, NT","PO Box 21, HUMPTY DOO, 0836, NT",admin.taminmin@education.nt.gov.au,(08) 898 37000,http://www.taminmin.nt.edu.au/,Mary Rose Henry,Business Manager,maryrose.henry@education.nt.gov.au,(08) 898 37000
Tennant Creek Pre School,False,"31 Paterson St, Tennant Creek, NT",", , , ",,(08) 8962 2110,,Mary Rose Henry,Business Manager,maryrose.henry@education.nt.gov.au,(08) 898 37000
Stuart Park Primary School,True,"8 Nudl St, Stuart Park, 0820, NT","PO Box 37421, Winnellie, 0831, NT",stuartpark.school@education.nt.gov.au,(08) 899 77333,http://www.stuartparkprimary.nt.edu.au,Wendy Woods,Business Manager,wendy.woods@education.nt.gov.au,(08) 899 77333
Stuart Park Pre School,False,"8 Nudl St, Stuart Park, NT",", , , ",,(08) 899 77322,,Wendy Woods,Business Manager,wendy.woods@education.nt.gov.au,(08) 899 77333
Stirling School,True,"N/A, Wilora (Stirling Station) 0872, NT","c/- Ti Tree Post Office, Ti Tree, 0872, NT",tba,(08) 8956 9759,n/a,Myles Ryan,Principal,myles.ryan@education.nt.gov.au,(08) 8956 9759
St Philip's College,False,"2 Ulpaya Rd, Alice Springs, NT","PO Box 33, Alice Springs, 0871, NT",info@stphilips.nt.edu.au,(08) 8950 4511,http://www.stphilips.nt.edu.au/,Leslie Tilbrook,Principal,leslie.tilbrook@stphilips.nt.edu.au,8950 4511
St Pauls Catholic School,True,"41 Francis St, Rapid Creek, NT","PO Box 40344, Casuarina, 0811, NT",admin.stpauls@nt.catholic.edu.au,(08) 8985 1937,http://www.stpaulsnt.catholic.edu.au/,Jo Knight,Principal,jo.knight@nt.catholic.edu.au,08 89851937
St Joseph's Catholic College,True,"Maluka Rd, Katherine East, NT","PO Box 535, Katherine, 0850, NT",admin.stjosephs@nt.catholic.edu.au,(08) 89723555,http://www.sjcckatherine.nt.edu.au,Sunniva Antonucci,Principal,sunniva.antonucci@nt.catholic.edu.au,(08) 8972 3555
St Mary's Catholic School,True,"3 Lindsay St, Darwin City, NT","PO Box 2413, Darwin, 0801, NT",admin.stmarys@nt.catholic.edu.au,(08) 8981 9796,http://www.stmarysnt.catholic.edu.au/,Rosie Harrison,Principal,rosie.harrison@nt.catholic.edu.au,(08) 8981 9796
St Joseph's Flexible Learning Centre,False,"Youth Hub, 3 Wills Terrace, , Alice Springs, 0870, NT","P O Box 2991, Alice Springs, 0871, NT",sjcflc@ereafsn.edu.au,0408 568 357,http://www.youthplus.edu.au/schools-services-details/youth-schools-network/flexible-learning-centre-alice-springs/alice-springs-flexible-learning-centre.html,Paula Bacchiella,Principal,paula.bacchiella@nt.catholic.edu.au,0408 568 357
St Johns Catholic College,False,"54 Salonika St, The Gardens, NT","Mail Bag 13, Darwin, 0820, NT",admin.stjohns@nt.catholic.edu.au,(08) 8982 2222,http://www.stjohnsnt.catholic.edu.au/,Cameron Hughes,Principal,cameron.hughes@nt.catholic.edu.au,08 8982 2222
Shepherdson College,True,"Wakirana St, Galiwinku, 0822, NT","PMB 74, via WINELLIE, 0822, NT",principal.shepherdson@education.nt.gov.au,(08) 8987 9044,n/a,Joe Hewett,Principal,joe.hewett@education.nt.gov.au,(08) 8987 9044
St Francis of Assisi Catholic Primary School,True,"56 Challoner Cct, Humpty Doo, NT","PO Box 921, Humpty Doo, , NT",admin.sfas@nt.catholic.edu.au,(08) 8988 1212,n/a,Christopher McAloon,Principal,christopher.mcalaoon@nt.catholic.edu.au,08 89881212
Shepherdson Pre School,False,"Wakirana St, Galiwinku, NT",", , , ",,(08) 8987 9044,,Christopher McAloon,Principal,christopher.mcalaoon@nt.catholic.edu.au,08 89881212
St Francis Xavier School,True,"n/a, Nauiyu, NT","PMB 28, Daly River, 0822, NT",dr.adminbox@nt.catholic.edu.au,(08) 8978 2427,www.sfxnt.catholic.edu.au,Veronica Toohey,Principal,veronica.toohey@nt.catholic.edu.au,08 89782427
SEDA College NT,False,"5/90 Ross Smith Ave, Fannie Bay, 0820, NT","5/90 Ross Smith Ave, Fannie Bay, 0820, NT",info@sedacollege.nt.edu.au,1300 337 332,https://seda.nt.edu.au/,Francis Gill,Principal,info@sedacollege.nt.edu.au,1300 337 332
Sattler Christian College,True,"15 Sattler Cres, Freds Pass, NT","PO Box 1138,, Coolalinga, 0839, NT",admin.scc@ntschools.net,7922 1500,not available,Mike Tooler,Principal,michael.tooler@ntschools.net,(08) 7922 1500
School of Sport Education NT,True,"1 Nemarluk Drive, Ludmilla, NT, 0820, NT","PO Box 42896, Casuarina, 0811, NT",admin.ssnt@education.nt.gov.au,(08) 899 95700,https://sporteducation.nt.edu.au,Joanne Heydon,Business Manager,joanne.heydon@education.nt.gov.au,(08) 899 95739
Royal Darwin Hospital School,False,"Rocklands Drive, Tiwi, Tiwi, 0810, NT","C/o Nakara Primary School, Goodman St, NAKARA, 0810, NT",tania.nicholls@education.nt.gov.au,(08) 8922 8736,n/a,Tania Nicholls,Principal,tania.nicholls@education.nt.gov.au,(08) 8922 8736
Sanderson Middle School,False,"60 Matthews Rd, Malak, 0812, NT","PO Box 189, SANDERSON, 0813, NT",sanderson.middle@education.nt.gov.au,(08) 8927 8899,https://www.sandersonmiddle.nt.edu.au/,Robert McIntosh,Principal,robert.mcintosh@education.nt.gov.au,(08) 792 30500
Sacred Heart Primary School,True,"34 Emery Ave, Woodroffe, NT","PO Box 271, Palmerston, 0831, NT",admin.shps@nt.catholic.edu.au,(08) 8924 8700,http://www.shpsnt.catholic.edu.au/,Stephen Versteegh,Principal,Stephen.Versteegh@nt.catholic.edu.au,08 8924 8700
Sadadeen Primary School,True,"80 Spearwood Rd, Alice Springs, 0870, NT","PO Box 2707, ALICE SPRINGS, 0871, NT",sadadeen.primary@education.nt.gov.au,(08) 895 52299,https://www.sadadeenprimary.nt.edu.au/,Donna Wright,Principal,donna.wright@education.nt.gov.au,(08) 895 52299
Ross Park Primary School,True,"7 Winnecke Ave, Alice Springs, 0870, NT","PO Box 364, ALICE SPRINGS, 0871, NT",rosspark.school@ntschools.net,(08) 895 52000,http://www.rossparkprimary.nt.edu.au,Penny Weily,Principal,penny.weily@education.nt.gov.au,(08) 895 52000
Rockhampton Downs School,True,"Community ID 259, Wogyala, NT","PMB 34, Tennant Creek, 0862, NT",marilyn.sonnenburg@education.nt.gov.au,(08) 8964 4675,n/a,Marilyn Sonnenburg,Principal,marilyn.sonnenburg@education.nt.gov.au,(08) 8964 4675
Rosebery Primary School,True,"Belyuen Road Rosebery, Rosebery, 0832, NT","PO Box 650, PALMERSTON, 0832, NT",roseberyps.admin@education.nt.gov.au,(08) 792 30100,http://roseberyprimary.nt.edu.au/,Tania Kolomitsev,Principal,tania.kolomitsev@education.nt.gov.au,(08) 792 30100
Rona Glynn Pre School,False,"2 Mckay St, Alice Springs, NT",", , , ",,(08) 895 21792,,Tania Kolomitsev,Principal,tania.kolomitsev@education.nt.gov.au,(08) 792 30100
Pine Creek School,True,"N/A, Pine Creek, 0847, NT","PO Box 196, Pine Creek, 0847, NT",janet.purje@education.nt.gov.au,(08) 8976 1228,,Yvette Willams,Business Manager,yvette.williams@education.nt.gov.au,(08) 8978 2455
Ramingining Pre School,False,"N/A, Ramingining, NT",", , , ",,(08) 8979 7924,,Yvette Willams,Business Manager,yvette.williams@education.nt.gov.au,(08) 8978 2455
Pularumpi School,True,"Pularumpi, Pirlangimpi, NT","PMB 51, via Winnellie, 0822, NT",roseanna.brunker@education.nt.gov.au,(08) 8978 3961,n/a,Bev McGregor,Business Manager,bev.mcgregor@education.nt.gov.au,(08) 894 49281
Robinson River School,True,"N/A, Robinson River, NT","PMB 145, Katherine, 0851, NT",chris.errington@education.nt.gov.au,(08) 8975 9956,,Keely Wallace,Business Manager,keely.wallace1@education.nt.gov.au,(08) 897 25395
Ramingining School,True,"133Lewangu Drive, Ramingining, 0822, NT","PMB 125, via WINNELLIE, 0822, NT",deanne.kathagen@education.nt.gov.au,(08) 8979 7924,n/a,Deanne Kathagen,Principal,deanne.kathagen@education.nt.gov.au,(08) 8979 7924
Peppimenarti School,True,"N/A, Peppimenarti, NT","PMB 49, via Winnellie, 0822, NT",eric.barrows@education.nt.gov.au,(08) 8978 2455,n/a,Christie Kent,Business Manager,Christie.kent@education.nt.gov.au,(08) 890 14913
Pigeon Hole School,True,"N/A, Pigeon Hole, NT","PMB 10, via Katherine, 0852, NT",anne.pollock@education.nt.gov.au,(08) 8975 0812,n/a,Anne Pollock,Principal,anne.pollock@education.nt.gov.au,(08) 8975 0812
Parap Primary School,True,"52 Urquhart Street, Parap, 0820, NT","PO Box 69, PARAP, 0804, NT",parapps.office@education.nt.gov.au,(08) 898 22922,http://www.parapprimary.nt.edu.au,Bianca Hyke,Principal,bianca.hyke@education.nt.gov.au,(08) 898 22922
Owen Springs Education Centre,False,"Stuart Highway, Alice Springs, 0870, NT","PO Box 4856, Alice Springs, 0871, NT",joel.hohn@education.nt.gov.au,(08) 8958 5088 / (08) 8958 5089,n/a,Joel Hohn,Principal,joel.hohn@education.nt.gov.au,8958 5088 / 9858 5089
Palmerston Christian School,True,"50 Waler Road, Marlow Lagoon, Marlow Lagoon, NT","PO Box 113, Palmerston, 0831, NT",admin.pcs@ntschools.net,(08) 7922 5600,http://www.pcs.nt.edu.au,Luke Willsmore,Principal,luke.willsmore@ntschools.net,(08) 7922 5600
Papunya School,True,"N/A, Papunya, 0872, NT","PMB 77, via Alice Springs, 0872, NT",christine.munro@education.nt.gov.au,(08) 8956 8515,n/a,Christine Munro,Principal,christine.munro@education.nt.gov.au,(08) 8956 8515
Palmerston College,False,"10 Tilston Ave, Driver, 0830, NT","PO Box 8, PALMERSTON, , NT",Palmerston.college@education.nt.gov.au,(08) 899 77999,http://www.palmerstoncollege.nt.edu.au,Sevil Aldas,Principal,sevil.aldas@education.nt.gov.au,(08) 899 77999
Parap Pre School,False,"61 Ross Smith Ave, Parap, NT",", , , ",,(08) 8981 5146,,Sevil Aldas,Principal,sevil.aldas@education.nt.gov.au,(08) 899 77999
OLSH Primary School,True,"5 Bath St, Alice Springs, NT","PO Box 2508, Alice Springs, 0871, NT",admin.olshalice@nt.catholic.edu.au,(08) 8950 6400,http://www.olshalice.nt.edu.au/,Paul Melloy,Principal,admin.olshalice@nt.catholic.edu.au,08 8950 6400
OLSH Thamarrurr Catholic College,True,"n/a, Wadeye (Port Keats), NT","Wadeye, Port Keats, via Winnellie, 0822, NT",admin.olshtcs@nt.catholic.edu.au,(08) 8978 2477,www.olshnt.catholic.edu.au,Jacqueline Conboy,Principal,jacqueline.conboy@nt.catholic.edu.au,(08) 8978 2477
OLSH College - Traeger Campus,True,"8 Traeger Ave, Alice Springs, NT","PO Box 2508, Alice Springs, 0871, NT",admin.olshalice@nt.catholic.edu.au,(08) 8950 6400,http://www.olshalice.catholic.edu.au/,Paul Melloy,Principal,admin.olshalice@nt.catholic.edu.au,08 8950 6400
Nyangatjatjara College - Imanpa Campus,False,"not available, not available, NT","PO Box 171, Yulara, 0872, NT",ceo@nyangatjatjaracollege.org.au,(08) 8956 7038,not available,Paul Melloy,Principal,admin.olshalice@nt.catholic.edu.au,08 8950 6400
Nyirripi School,True,"N/A, Nyirripi, NT","PMB 125, via Alice Springs, 0872, NT",ken.millar@education.nt.gov.au,(08) 8956 8880,n/a,Ken Millar,Principal,ken.millar@education.nt.gov.au,(08) 8956 8880
Nyangatjatjara College - Mutitjulu Campus,False,"n/a, Yulara, NT","PO Box 171, Yulara, 0872, NT",ceo@nyangatjatjaracollege.or.au,(08) 8956 2555,m/a,Ken Millar,Principal,ken.millar@education.nt.gov.au,(08) 8956 8880
OLSH College - Sadadeen Campus,False,"Sadadeen Rd, Alice Springs, NT","PO Box 2508, Alice Springs, 0871, NT",admin.olshalice@nt.catholic.edu.au,(08) 8950 6400,http://www.olshalice.catholic.edu.au/,Paul Melloy,Principal,paul.melloy@nt.catholic.edu.au,08 8950 6400
O'Loughlin Catholic College,False,"70 Mueller Rd, Karama, NT","P O Box 41911, Casuarina, 0811, NT",secretary.oloughlin@nt.catholic.edu.au,(08) 8945 1277,http://www.oloughlin.nt.edu.au,Megan Evans,Principal,megan.evans@nt.catholic.edu.au,(08) 8945 1277
Numbulwar Pre School,False,"N/A, Numbulwar, NT",", , , ",,(08) 8975 4650,,Megan Evans,Principal,megan.evans@nt.catholic.edu.au,(08) 8945 1277
Numbulwar School,True,"N/A, Numbulwar, NT","PMB 68, WINELLIE, 0822, NT",stephanie.valcanis@education.nt.gov.au,(08) 8975 4650,n/a,Benjamin Kinder,Principal,benjamin.kinder@education.nt.gov.au,(08) 8975 4650
Nyangatjatjara College - Docker Rvr Campus,False,"N/A, Kaltukatjara (Docker River), NT","PO Box 171, Yulara, 0872, NT",ceo@nyangatjatjaracollege.org.au,(08) 8956 7098,not available,Mike Tucker,Principal,m.tucker@nyangatjatjaracollege.org.au,8956 7098
Ntaria School,True,"N/A, Hermannsburg (Ntaria), NT","PMB 4, via Alice Springs, 0872, NT",emma.langton@education.nt.gov.au,(08) 8956 7424,n/a,Emma Langton,Principal,emma.langton@education.nt.gov.au,(08) 8956 7424
Nightcliff Pre School,False,"17 Pandanus St, Nightcliff, NT",", , , ",,(08) 8948 8488,,Emma Langton,Principal,emma.langton@education.nt.gov.au,(08) 8956 7424
NT Music School,True,"60 Matthews Rd, Wulagi 0812, NT","PO Box 455, Sanderson, 0813, NT",nt.musicschool@education.nt.gov.au,(08) 896 35550,http://www.ntms.net.au,Bill Grose,Principal,bill.grose@education.nt.gov.au,(08) 896 35551
NT School of Distance Education,False,"The Bullocky Point Education Precinct, Atkins Dr, The Gardens, 0820, NT","PO Box 40471, Casuarina, 0811, NT",ntsde.admin@education.nt.gov.au,(08) 892 22222,http://www.ntsde.nt.edu.au,Anne White,Principal,Anne.white@education.nt.gov.au,(08) 892 22292
Nightcliff Primary School,True,"17 Pandanus St, Nightcliff, 0810, NT","PO BOX 798, NIGHTCLIFF, 0810, NT",nightcliff.ps@education.nt.gov.au,(08) 8948 8488,http://www.nightcliffprimary.nt.edu.au,Lisa Whistler,Business Manager,lisa.whistler@education.nt.gov.au,(08) 8948 8488
Nightcliff Middle School,False,"90 Aralia St, Rapid Creek, 0810, NT","90 Aralia St, NIGHTCLIFF, 0810, NT",admin.nightms@education.nt.gov.au,(08) 898 37677,http://www.nightcliffmiddle.nt.edu.au,Lyn Waugh,Business Manager,lyn.waugh1@education.nt.gov.au,(08) 898 37677
Nhulunbuy Primary School,True,"60 Chesterfield Cct, Nhulunbuy, 0880, NT","PO Box 321, NHULUNBUY, 0881, NT",nps.frontoffice@education.nt.gov.au,(08) 898 70022,http://www.nhulunbuyprimary.nt.edu.au/,Rachel Blundell,Principal,rachel.blundell@education.nt.gov.au,(08) 898 70022
Nhulunbuy Pre School,False,"36 Chesterfield Cct, Nhulunbuy, NT",", , , ",,(08) 8987 1056,,Rachel Blundell,Principal,rachel.blundell@education.nt.gov.au,(08) 898 70022
Nganmarriyanga School,True,"N/A, Palumpa, NT","PMB 85, via WINNELLIE, 0822, NT",jen.robson@education.nt.gov.au,(08) 8978 2380,http://www.nganmarriyangaschool.com,Jen Robson,Principal,jen.robson@education.nt.gov.au,(08) 8978 2380
Ngukurr School,True,"Bawuda St, Ngukurr, 0852, NT","PMB 138, KATHERINE, 0851, NT",ngukurr.cec@education.nt.gov.au,(08) 8975 4680,n/a,Dhanushka Papiliya,Business Manager,Dhanushka.Papiliya@education.nt.gov.au,(08) 897 25397
Ngukurr Pre School,False,"Bawuda St, Ngukurr, NT",", , , ",,(08) 8975 4680,,Dhanushka Papiliya,Business Manager,Dhanushka.Papiliya@education.nt.gov.au,(08) 897 25397
Nhulunbuy Christian School,True,"N/A, Nhulunbuy, NT","PO Box 621, Nhulunbuy, 0881, NT",admin.ncc@ntschools.net,(08) 8965 2900,http://www.ncc.nt.edu.au/,tba tba,Principal,tba,8965 2900
Nhulunbuy High School,False,"51 Matthew Flinders Way, Nhulunbuy, 0880, NT","PO Box 1096, NHULUNBUY, 0881, NT",nhulunbuy.high@education.nt.gov.au,(08) 898 70844,n/a,Brad Madden,Principal,brad.madden@education.nt.gov.au,08 898 70844
Neutral Junction School,True,"Stuart Hwy, Neutral Junction, NT","Neutral Junction, via Alice Springs, 0872, NT",ruth.rawnsley@education.nt.gov.au,(08) 8956 9754,n/a,Ruth Rawnsley,Principal,ruth.rawnsley@education.nt.gov.au,(08) 8956 9754
Newcastle Waters School,True,"11 Drovers Dr, Newcastle Waters, NT","Newcastle Waters Station, via Elliott, 0862, NT",sabina.armstrong@education.nt.gov.au,(08) 8964 4566,n/a,Cheyenne Ellis,Business Manager,Cheyenne.Ellis@education.nt.gov.au,(08) 896 32065
Nganambala School,True,"n/a, Emu Point, NT","PMB 218, Via Winnellie, 0822, NT",samuel.sailor@education.nt.gov.au,(08) 8978 2001,n/a,Samuel Sailor,Principal,samuel.sailor@education.nt.gov.au,(08) 8978 2001
Nakara Pre School,False,"35 Nakara Tce, Nakara, NT",", , , ",,(08) 8927 9823,,Samuel Sailor,Principal,samuel.sailor@education.nt.gov.au,(08) 8978 2001
Nathalie Gorey Pre School,False,"80 Spearwood Rd, Alice Springs, NT",", , , ",,(08) 8952 1186,,Samuel Sailor,Principal,samuel.sailor@education.nt.gov.au,(08) 8978 2001
Nakara Primary School,True,"35 Nakara Tce, Nakara, 0810, NT","35 Nakara Tce, Nakara, 0810, NT",nakara.primary@education.nt.gov.au,(08) 8927 9823,https://www.nakaraprimary.nt.edu.au,Lorraine Warnock,Business Manager,Lorraine.Warnock@education.nt.gov.au,(08) 8927 9823
Nawardekken Academy,False,"tba, tba, NT","tba, PO Box 37620 Winnellie  NT  0821, tba, NT",admin@nawarddeken.org.au,0429 136 102,tba,Olga Scholes,Principal,olga.scholes@nawarddeken.org.au,tba
Nemarluk School,True,"30 Styles St, Alawa, 0810, NT","PO Box 39729, WINNELLIE, 0821, NT",admin.nemarluk@education.nt.gov.au,(08) 898 50400,http://nemarlukschool.com.au,Virg Hughes,Principal,virg.hughes@education.nt.gov.au,(08) 898 50400
Murray Downs School,True,"Outstation, Murray Downs(Imangara), NT","PMB 48, Alice Springs, 0872, NT",mitchell.valentine@education.nt.gov.au,(08) 8964 1951,n/a,Mitchell Valentine,Principal,mitchell.valentine@education.nt.gov.au,(08) 8964 1951
Mutitjulu School,True,"Mutitjulu, Ayers Rock, NT","PO Box 121, Yulara, 0872, NT",mutitjulu.school@education.nt.gov.au,(08) 8956 2547,n/a,Trish Noy,Principal,trish.noy@education.nt.gov.au,(08) 8956 2547
Murrupurtiyanuwu Catholic Primary School,True,"Kerinauia Highway, Nguiu, NT","PO Box 45, Wurrumiyanga, Bathurst Island, via Winnellie, 0822, NT",admin.mcs@nt.catholic.edu.au,(08) 8978 3986,http://www.mcsnt.catholic.edu.au/,Berkley Muldoon,Principal,berkley.muldoon@nt.catholic.edu.au,(08) 8978 3986
Mother Teresa Catholic Primary School,True,"Ginger St, Zuccoli, NT","PO Box 1125, Palmerston, 0830, ",principal.motherteresa@nt.catholic.edu.au,(08) 7969 5600,,Reuben Johnson,Principal,principal.motherteresa@nt.catholic.edu.au,(08) 7969 5600
Moulden Pre School,False,"103 Bonson Tce, Moulden, NT",", , , ",,(08) 8930 5965,,Reuben Johnson,Principal,principal.motherteresa@nt.catholic.edu.au,(08) 7969 5600
Mount Allan School,True,"N/A, Yuelamu, NT","PMB  6, Mount Allan School via Alice Springs, 0872, NT",dowreen.lata@education.nt.gov.au,(08) 8956 8860,n/a,Dowreen Lata,Principal,dowreen.lata@education.nt.gov.au,(08) 8956 8860
Moulden Primary School,True,"103 Bonson Tce, Moulden, 0830, NT","PO Box 80, PALMERSTON, 0831, NT",moulden.primary@education.nt.gov.au,(08) 8930 5900,not available,Emma Rush,Business Manager,emma.rush@education.nt.gov.au,(08) 8930 5900
Mulga Bore School,True,"n/a, Mulga Bore Community, NT","PMB 18, via Alice Springs, 0872, NT",sundayt.taite@education.nt.gov.au,(08) 8956 9824,n/a,Therese Townsend,Business Manager,therese.townsend@education.nt.gov.au,(08) 895 11637
Moil Pre School,False,"Moil Crescent, Moil, NT",", , , ",,(08) 898 37535,,Therese Townsend,Business Manager,therese.townsend@education.nt.gov.au,(08) 895 11637
Moil Primary School,False,"37 Lanyon Tce, Moil, 0810, NT","37 Lanyon Tce, MOIL, 0810, NT",admin.moilsch@education.nt.gov.au,(08) 898 37530,http://www.moilschool.nt.edu.au,Erin ranie,Principal,erin.ranie@education.nt.gov.au,(08) 898 37530
Minyerri School,True,"N/A, Minyerri (Hodgson Downs), NT","PMB 40, KATHERINE, 0851, NT",theo.debeer@education.nt.gov.au,(08) 8975 9972,n/a,Theo De Beer,Principal,theo.debeer@education.nt.gov.au,(08) 8975 9972
Millner Pre School,False,"41 Sabine Rd, Millner, NT",", , , ",,(08) 792 30333,,Theo De Beer,Principal,theo.debeer@education.nt.gov.au,(08) 8975 9972
Milyakburra School,True,"N/A, Milyakburra (Bickerton Island), NT","PMB 5, Bickerton Island, via Winnellie, 0822, NT",leah.carroll@education.nt.gov.au,(08) 8987 6084,n/a,Leah Carroll,Principal,leah.carroll@education.nt.gov.au,(08) 8987 6084
Millner Primary School,True,"41 Sabine Rd, Millner, 0810, NT","41 Sabine Rd, MILLNER, 0810, NT",admin.millnerps@education.nt.gov.au,(08) 792 30333,http://www.millnerprimary.nt.edu.au,Megan Moss,Adminstration Manager,megan.moss@education.nt.gov.au,(08) 792 30333
Minyerri Pre School,False,"N/A, Minyerri (Hodgson Downs), NT",", , , ",,(08) 8975 9972,,Megan Moss,Adminstration Manager,megan.moss@education.nt.gov.au,(08) 792 30333
Mimik-Ga Centre,True,"4 Henbury Ave, Wanguri, 0810, NT","PO Box 40519, Casuarina, 0811, NT",admin.mimik-ga@education.nt.gov.au,(08) 898 37900,n/a,Mark Mangohig,Principal,mark.mangohig@education.nt.gov.au,(08) 898 37900
Milkwood Steiner,True,"107 Boulter Road, Berrimah NT 0828, Marrara, NT","PO Box 319, Karama, 0812, NT",admin@milkwood.nt.edu.au,08 8947 0608,http://www.milkwood.nt.edu.au/,Netanela Mizrahi,Principal,principal@milkwood.nt.edu.au,(08) 8947 0608
Milingimbi School,True,"N/A, Milingimbi, 0822, NT","PMB 54, Milingimbi, via WINNELLIE, 0822, NT",adam.dicks1@education.nt.gov.au,(08) 8987 9902,n/a,Adam Dicks,Principal,adam.dicks1@education.nt.gov.au,(08) 8987 9902
Milikapiti School,True,"N/A, Milikapiti (Snake Bay), NT","PMB 96, via Winnellie, 0822, NT",gabrielle.field@education.nt.gov.au,(08) 8978 3960,n/a,Bev McGregor,Business Manager,bev.mcgregor@education.nt.gov.au,(08) 894 49281
Marrara Christian School,True,"110 Amy Johnson Ave, Marrara, NT","PO Box 84, Karama, 0812, NT",admin.mcc@ntschools.net,(08) 8920 2000,http://www.mcc.nt.edu.au,Joel Van Bentum,Principal,joel.vanbentum@ntschools.net,8920 2000
Mapuru Yirralka College,False,"Dhabulu Rd, Mapuru, NT 0822, NT","PMB 301, Winnellie, 0821, NT",debra.bateman@ntschools.net,(08) 8970 4996,tba,Debra Bateman,Principal,debra.bateman@ntschools.net,8970 4996
Mbunghara School,True,"N/A, Mbunghara, NT","PMB 242, via Alice Springs, 0872, NT",mbunghara.school@education.nt.gov.au,(08) 8956 8503,n/a,Amanda Pehi,Principal,amanda.pehi@education.nt.gov.au,(08) 8956 8503
Mataranka School,True,"Roper Terrace, Mataranka, 0852, NT","PO Box 4022, Mataranka, 0852, NT",jennifer.jenkins@education.nt.gov.au,(08) 8975 4543,n/a,Karita Thomas,Business Manager,katrina.thompson@education.nt.gov.au,(08) 897 25391
Middle Point School,True,"615 Anzac Pde, Middle Point, NT","PO Box 96, Humpty Doo, 0836, NT",middle.pt@education.nt.gov.au,(08) 8988 1688,http://www.middlepointschool.nt.edu.au/,Stacey Marsh,Principal,Stacey.marsh@education.nt.gov.au,(08) 8988 1688
Manunda Terrace Pre School,False,"31 Manunda Tce, Karama, NT",", , , ",,(08) 899 77366,,Stacey Marsh,Principal,Stacey.marsh@education.nt.gov.au,(08) 8988 1688
Manunda Terrace Primary School,True,"31 Manunda Tce, Karama, 0812, NT","31 Manunda Tce, KARAMA, 0812, NT",manunda.school@education.nt.gov.au,(08) 899 77366,https://www.manundaterraceprimaryschool.com/,Michael Kerr,Business Manager,michael.kerr@education.nt.gov.au,(08) 899 77366
Manyallaluk School,True,"N/A, Manyallaluk (Eva Valley), NT","PO Box 271, Katherine, 0851, Nt",admin.manyasch@education.nt.gov.au,(08) 8975 4438,n/a,Kimberley Lalim,Business Manager,kimberly.lalim1@education.nt.gov.au,(08) 897 25361
Malak Pre School,False,"45 Malak Cres, Malak, NT",", , , ",,(08) 899 77600,,Kimberley Lalim,Business Manager,kimberly.lalim1@education.nt.gov.au,(08) 897 25361
Maningrida College,True,"n/a, Maningrida, 0822, NT","PMB 67, via Winnellie, 0822, NT",maningrida.cec@education.nt.gov.au,(08) 8979 5950,http://www.maningridacollege.nt.edu.au/,Dama Stride,Business Manager,dama.stride@education.nt.gov.au,(08) 8979 5950
Malak Primary School,True,"45 Malak Cres, Malak, 0812, NT","45 Malak Crescent, MALAK, 0812, NT",admin.malak@education.nt.gov.au,(08) 899 77600,http://www.malakprimary.nt.edu.au,Haydon Staines,Principal,haydon.staines@education.nt.gov.au,(08) 899 77600
Mamaruni School,True,"N/A, Minjilang (Croker Is), NT","PMB 47, via Winnellie, 0822, NT",tracy.brislane@education.nt.gov.au,(08) 8979 0255,http://www.mamarunischool.nt.edu.au/,Tracy Brislane,Principal,tracy.brislane@education.nt.gov.au,(08) 8979 0255
Mackillop Catholic College,False,"285 Farrar Boulevard, Johnston, NT","P O Box 2608, Palmerston, 0831, NT",mackillopcollege@nt.catholic.edu.au,08 8930 5757,www.mackillopnt.catholic.edu.au,Lucas Hurley,Principal,lucas.hurley@nt.catholic.edu.au,89305757
Ludmilla Primary School,True,"41 Bagot Rd, Ludmilla, 0820, NT","PO Box 39945, WINNELLIE, 0821, NT",admin.ludmilla@education.nt.gov.au,(08) 898 37888,http://www.ludmillaprimary.nt.edu.au,Carol Putica,Principal,carol.putica@education.nt.gov.au,08 898 37888
MacFarlane Primary School,True,"42 Grevillea Rd, Katherine East, 0850, NT","42 Grevillea Road, KATHERINE EAST, 0850, NT",admin.macfasch@education.nt.gov.au,(08) 896 51700,http://www.macfarlaneprimary.nt.edu.au,Philip Russell,Principal,philip.russell@education.nt.gov.au,(08) 896 51700
MacFarlane Pre School,False,"Grevillea Rd, Katherine East, NT",", , , ",,(08) 8972 3069,,Philip Russell,Principal,philip.russell@education.nt.gov.au,(08) 896 51700
Ludmilla Pre School,False,"41 Bagot Rd, Ludmilla, NT",", , , ",,(08) 898 37889,,Philip Russell,Principal,philip.russell@education.nt.gov.au,(08) 896 51700
Ltyentye Apurte CEC,True,"N/A, Santa Teresa (Ltyenty Apurte), NT","Santa Teresa, PMB 221, via A/Springs, 0871, NT",la.admin@nt.catholic.edu.au,(08) 8956 0937,http://www.lacecnt.catholic.edu.au,Justin Colley,Principal,justin.colley@nt.catholic.edu.au,89560937
Living Waters Lutheran School,True,"Cnr Albrecht Dr & Kramer St, Alice Springs, NT","PO Box 8869, Alice Springs, 0871, NT",living.waters@ntschools.net,(08) 8950 0700,http://www.livingwaterslutheranschool.nt.edu.au,Lisa Goldsworthy,Principal,lisa.goldsworthy@ntschools.net,08 89500700
Leanyer Primary School,True,"114 Leanyer Drive,, Leanyer, 0812, NT","114 Leanyer Drive, LEANYER, 0812, NT",admin.leanyer@education.nt.gov.au,(08) 8927 4022,http://leanyerschool.nt.edu.au,Leah Crockford,Principal,leah.crockford@education.nt.gov.au,(08) 8927 4022
Leanyer Pre School,False,"114 Leanyer Dr, Leanyer, NT",", , , ",,(08) 8927 4022,,Leah Crockford,Principal,leah.crockford@education.nt.gov.au,(08) 8927 4022
Laynhapuy Homelands School,True,"Galpu Rd, Yirrkala, NT","PMB 747, Nhulunbuy, 0881, NT",lhs.admin@ntschools.net,(08) 898 71224,n/a,Abigail White,Principal,abigail.white@education.nt.gov.au,(08) 898 71224
Larrakeyah Primary School,True,"3 Packard St, Larrakeyah, 0820, NT","PO Box 412, DARWIN, 0801, NT",larrakeyah.admin@education.nt.gov.au,(08) 8981 3211,http://www.larrakeyahprimary.nt.edu.au,Fathma Mauger,Principal,fathma.mauger@education.nt.gov.au,(08) 8981 3211
Larrakeyah Pre School,False,"3 Packard St, Larrakeyah, NT",", , , ",,(08) 8981 9091,,Fathma Mauger,Principal,fathma.mauger@education.nt.gov.au,(08) 8981 3211
Lajamanu School,True,"N/A, Lajamanu ( Hooker Ck), NT","PMB 63, via Katherine, 0851, NT",admin.lajamcec@education.nt.gov.au,(08) 8975 0946,n/a,Kimberley Lalim,Business Manager,kimberley.lalim1@education.nt.gov.au,(08) 897 25361
Laramba School,True,"N/A, Laramba (Napperby), NT","PMB 213, via Alice Springs, 0872, NT",laramba.school@education.nt.gov.au,(08) 8956 8771,n/a,Michael Ryan,Principal,michael.ryan1@education.nt.gov.au,(08) 8956 8771
Larapinta Primary School,True,"22 Albrecht Dr, Alice Springs, NT","PO Box 9021, ALICE SPRINGS, 0871, NT",larapinta.primary@education.nt.gov.au,(08) 895 85155,http://www.larapintaprimary.nt.edu.au,Larapinta Primary,Adminstration Manager,larapinta.finance@education.nt.gov.au,(08) 895 85155
Larapinta Pre School,False,"22 Albrecht Dr, Alice Springs, NT",", , , ",,(08) 895 85145,,Larapinta Primary,Adminstration Manager,larapinta.finance@education.nt.gov.au,(08) 895 85155
Lajamanu Pre School,False,"N/A, Lajamanu (Hooker Ck), NT",", , , ",,(08) 89750 946,,Larapinta Primary,Adminstration Manager,larapinta.finance@education.nt.gov.au,(08) 895 85155
Kiana School,True,"N/A, Kiana, NT","PMB 33, via Tennanat Creek, 0861, NT",tba,(08) 8975 9820,,tba tba,Principal,tba,(08) 8975 9820
Kintore Street School,True,"11 Kintore St, Katherine, 0872, NT","PO Box 1931, KATHERINE, 0851, NT",kintore.admin@education.nt.gov.au,(08) 8973 3888,n/a,Sally Lovering,Principal,sally.lovering@education.nt.gov.au,(08) 8973 3888
Kintore Street Pre School,False,"11 Kintore St, Katherine, NT",", , , ",,(08) 8973 3888,,Sally Lovering,Principal,sally.lovering@education.nt.gov.au,(08) 8973 3888
Katherine South Primary School,True,"Riverbank Dr, Katherine, 0850, NT","PO Box 721, KATHERINE, 0851, NT",admin.kathesch@education.nt.gov.au,(08) 8972 1277,https://www.katherinesouthprimary.nt.edu.au/,Amit Kundu,Principal,amit.kundu1@education.nt.gov.au,(08) 8972 1277
Katherine School Of The Air,True,"101 Giles St, Katherine, 0850, NT","PO Box 531, KATHERINE, 0851, NT",kath.soa@education.nt.gov.au,(08) 896 51555,https://www.ksa.nt.edu.au/,Donna Bryant,Principal,donna.bryant1@education.nt.gov.au,(08) 896 51550
Katherine South Pre School,False,"Riverbank Drive, Katherine, NT",", , , ",,(08) 8972 1277,,Donna Bryant,Principal,donna.bryant1@education.nt.gov.au,(08) 896 51550
Katherine High School,False,"Grevillea Rd, Katherine East, 0850, NT","PO Box 189, KATHERINE, 0851, NT",admin.kathehs@education.nt.gov.au,(08) 897 38200,https://www.katherinehighschool.com.au/,Nick Lovering,Principal,nick.lovering@education.nt.gov.au,(08) 897 38201
Katherine Flexible Learning Centre,False,"5 Kintore St, Katherine, 0850, NT","PO Box 189, Katherine, 0851, NT",tba,(08) 897 38200,n/a,Nick Lovering,Principal,nick.lovering@education.nt.gov.au,(08) 897 38201
Karama Primary School,True,"37 Livistona Rd, Karama, 0812, NT","PO Box 103, Karama, 0813, NT",karama.school@education.nt.gov.au,(08) 898 37700,https://www.karamaschool.nt.edu.au/,Maria Albion,Principal,maria.albion@education.nt.gov.au,(08) 898 37700
Karama Pre School,False,"37 Livistona Rd, Karama, NT",", , , ",,(08) 898 37711,,Maria Albion,Principal,maria.albion@education.nt.gov.au,(08) 898 37700
Kalkaringi School,True,"Whitlam st, Kalkaringi (Wave hill), NT","PMB 41, KATHERINE, 0852, NT",anne.saunders@education.nt.gov.au,(08) 896 51888,,Anne Saunders,Principal,anne.saunders@education.nt.gov.au,(08) 8965 1888
Kalkaringi Pre School,False,"Whitlam St, Kalkaringi (Wave hill), NT",", , , ",,(08) 8965 1888,,Anne Saunders,Principal,anne.saunders@education.nt.gov.au,(08) 8965 1888
Jingili Primary School,True,"17 Rindberg St, Jingili, 0810, NT","PO Box 40600, CASUARINA, 0810, NT",jingili.school@education.nt.gov.au,(08) 898 37555,http://www.jingiliprimary.nt.edu.au/,Andrea Thomas,Business Manager,andrea.thomas@education.nt.gov.au,(08) 898 37555
Jingili Preschool,False,"10 Jingili Tce, Jingili, NT",", , , ",,(08) 8985 3495,,Andrea Thomas,Business Manager,andrea.thomas@education.nt.gov.au,(08) 898 37555
Jilkminggan School,True,"N/A, Jilkminggan (Duck Creek), NT","PO Box 4054, Mataranka, 0852, NT",admin.jilkmsch@education.nt.gov.au,(08) 8975 4896,n/a,Lyndie Watson,Principal,lyndie.watson@education.nt.gov.au,(08) 8975 4896
Jabiru Pre School,False,"40 Waterhouse Rd, Jabiru, NT",", , , ",,(08) 8938 3333,,Lyndie Watson,Principal,lyndie.watson@education.nt.gov.au,(08) 8975 4896
Ida Standley Pre School,False,"15 Parke Cres, Alice Springs, NT",", , , ",,(08) 8952 1040,,Lyndie Watson,Principal,lyndie.watson@education.nt.gov.au,(08) 8975 4896
Imanpa School,True,"N/A, Imanpa, NT","PMB 76, via Alice Springs, 0872, NT",steve.nankivell@education.nt.gov.au,(08) 8956 7483,n/a,Steve Nankivell,Principal,steve.nankivell@education.nt.gov.au,(08) 8956 7483
Jabiru Area School,True,"40 Waterhouse Rd, Jabiru, NT","PO Box  246, Jabiru, 0886, NT",jabiru.areaschool@education.nt.gov.au,(08) 8938 3333,n/a,Amy Tambling,Principal,amy.tambling@education.nt.gov.au,(08) 8938 3333
Humpty Doo Primary School,True,"50 Freds Pass Rd, Humpty Doo, 0836, NT","PO Box 46, HUMPTY DOO, 0836, NT",admin.humptydoo@education.nt.gov.au,(08) 792 30400,tba,Carrie White,Principal,carrie.white@education.nt.gov.au,(08) 792 30400
Humpty Doo Pre School,False,"50 Freds Pass Rd, Humpty Doo, NT",", , , ",,(08) 792 30400,,Carrie White,Principal,carrie.white@education.nt.gov.au,(08) 792 30400
Howard Springs Primary School,True,"295 Whitewood Rd, Howard Springs, 0835, NT","PO Box  171, HOWARD SPRINGS, 0835, NT",howard.springs@education.nt.gov.au,(08) 898 30000,http://www.howardspringsprimary.nt.edu.au/,Narelle Dahl,Principal,narelle.dahl@education.nt.gov.au,(08) 8983 0001
Howard Springs Pre School,False,"295 Whitewood Rd, Howard Springs, NT",", , , ",,(08) 8983 0000,,Narelle Dahl,Principal,narelle.dahl@education.nt.gov.au,(08) 8983 0001
Holy Spirit Catholic School,True,"Gsell Street, Casuarina, NT","PO Box 40030, Casuarina, 0810, NT",paula.sellars@nt.catholic.edu.au,(08) 8927 3411,http://www.holyspiritnt.catholic.edu.au/,Paula Sellars,Principal,paula.sellars@nt.catholic.edu.au,08 89273411
Henbury School,False,"11 Henbury Avenue, Tiwi, 0810, NT","11 Henbury Avenue, Tiwi, 0810, NT",henbury.admin@education.nt.gov.au,(08) 899 77077,http://www.henburyschool.org.au/,Sarah Corry,Principal,sarah.corry@education.nt.gov.au,(08) 899 77077
Holy Family Catholic School,True,"Calytrix Road, Karama, NT","PO Box 40870, Casuarina, 0812, NT",admin.holyfamily@nt.catholic.edu.au,(08) 89276188,http://www.holyfamilynt.catholic.edu.au/,Michelle Garbutt,Principal,michelle.garbutt@nt.catholic.edu.au,08 89276188
Harts Range School,True,"N/A, Atitjere (Harts Range), NT","PMB 162, via Alice Springs, 0871, NT",kylie.mckay@education.nt.gov.au,(08) 8956 9771,n/a,Kylie McKay,Principal,kylie.mckay@education.nt.gov.au,(08) 8956 9771
Haileybury Rendall School,False,"6057 Berrimah Road, Berrimah, NT","PO Box 241, Berrimah, 0828, NT",hrs.admin@haileybury.com.au,(08) 8922 1611,http://www.haileyburyrendall.com.au,Andrew McGregor,Principal,andrew.mcgregor@haileybury.com.au,(08) 8922 1611
Gunbalanya School,True,"N/A, Gunbalanya, NT","PMB 66, Gunbalanya, 0822, NT",admin.gunbacec@education.nt.gov.au,(08) 8979 0181,http://www.gunbalanyaschool.nt.edu.au/,Sue Trimble,Principal,sue.trimble@education.nt.gov.au,(08) 8979 0181
Haasts Bluff School,True,"N/A, Haasts Bluff (Ikuntji), 0872, NT","Haasts Bluff, via Alice Springs, 0872, NT",geoff.gillman@education.nt.gov.au,(08) 8956 8550,n/a,Geoff Gillman,Principal,geoff.gillman@education.nt.gov.au,(08) 8956 8550
Gunbalanya Pre School,False,"N/a, Gunbalanya, NT",", , , ",,(08) 8979 0181,,Geoff Gillman,Principal,geoff.gillman@education.nt.gov.au,(08) 8956 8550
Gray Primary School,True,"22 Victoria Drive, Gray, 0830, NT","Victoria Drive, GRAY, 0830, NT",admin.graysch@education.nt.gov.au,(08) 8932 1700,http://www.grayprimary.nt.edu.au,Donna Westaway,Principal,donna.poetschka@education.nt.gov.au,(08) 8932 1700
Gray Pre School,False,"22 Victoria Dr, Gray, NT",", , , ",,(08) 8932 1700,,Donna Westaway,Principal,donna.poetschka@education.nt.gov.au,(08) 8932 1700
Good Shepherd Lutheran School,True,"Cnr Emery Ave and Temple Tce, Palmerston, NT","PO Box 1146, Howard Springs, 0831, NT",admin@goodshepherd.nt.edu.au,(08) 8983 0300,http://www.goodshepherd.nt.edu.au,Matthew Qualischefski,Principal,matthew.q@ntschools.net,08 89830300
Good Shepherd Lutheran College,True,"Cnr Whitewood Rd and Kundook Place, Howard Springs, NT","PO Box 1146, Howard Springs, 0831, NT",admin@goodshepherd.nt.edu.au,08 89830300,http://www.goodshepherd.nt.edu.au,Matthew Qualischefski,Principal,matthew.q@ntschools.net,8983 0300
Girraween Primary School,True,"25 Carruth Rd, Girraween, 0835, NT","PO Box 1042, HOWARD SPRINGS, 0835, NT",admin.girrasch@education.nt.gov.au,(08) 8983 3300,http://www.girraweenprimary.nt.edu.au/,Megan McKenzie,Principal,megan.mckenzie@education.nt.gov.au,(08) 8983 3300
Good Shepherd - Leanyer Campus,True,"94 Leanyer Drive, Leanyer, NT","PO Box 1146, Howard Springs, 0831, NT",admin@goodshepherd.nt.edu.au,(08) 8983 0300,http://www.goodshepherd.nt.edu.au,Matthew Qualischefski,Principal,matthew.q@ntschools.net,(08) 8983 0333
Gillen Primary School,True,"55 Milner Rd, Alice Springs, 0870, NT","PO Box 769, ALICE SPRINGS, 0871, NT",gillen.school@education.nt.gov.au,(08) 895 52155,http://www.gillenprimary.nt.edu.au/,Donna O'Brien,Principal,donna.obrien@education.nt.gov.au,(08) 895 52155
Girraween Pre School,False,"25 Carruth Rd, Girraween, NT",", , , ",,(08) 8983 3300,,Donna O'Brien,Principal,donna.obrien@education.nt.gov.au,(08) 895 52155
Gillen Pre School,False,"12 Newland St, Alice Springs, NT",", , , ",,(08) 8952 2355,,Donna O'Brien,Principal,donna.obrien@education.nt.gov.au,(08) 895 52155
Gawa Christian School,True,"Community ID 508, Gawa, NT","PMB 257, Elcho Island via Winnellie, 0822, NT",admin.gcs@ntschools.net,8970 5212,not available,Lara Hvala,Principal,lara.hvala@ntschools.net,8970 5212
Gapuwiyak School,True,"N/a, Gapuwiyak, NT","PMB 900, Via Winnellie, 0822, NT",christopher.oneill@education.nt.gov.au,(08) 8987 9122,n/a,Jodi-anne Williamson,Business Manager,busmanager.gapuwiyak@education.nt.gov.au,
Gapuwiyak Pre School,False,"N/A, Gapuwiyak, NT",", , , ",,(08) 8987 9122,,Jodi-anne Williamson,Business Manager,busmanager.gapuwiyak@education.nt.gov.au,
Forrest Parade School,False,"120 Flynn Circuit, Bellamack, 0832, NT","120 Flynn Circuit, Bellamack, 0832, NT",admin.forrestps@education.nt.gov.au,(08) 899 77111,https://forrestparadeschool.nt.edu.au/wp/,Annie Keighran,Principal,annie.keighran@education.nt.gov.au,(08) 899 77101
Finke School,True,"N/A, Finke, NT","PMB 30, via Alice Springs, 0871, NT",finke.school@education.nt.gov.au,(08) 8956 0960,n/a,Nanci Morrison,Principal,nanci.morrison@education.nt.gov.au,(08) 8956 0960
The Essington International School Darwin,True,"22 Chapman Rd, Rapid Creek, NT","PO Box 42321, Casuarina, 0811, NT",administration@essington.nt.edu.au,(08) 8985 0100,http://www.essington.nt.edu.au,Karen Rohrs,Principal,Karen.Rohrs@essington.nt.edu.au,8985 0100
Families as First Teachers,True,"Mitchell St, Darwin, 0800, NT","GPO Box 4821, Darwin, 0801, NT",faft.doe@education.nt.gov.au,(08) 899 93550,n/a,Karen Rohrs,Principal,Karen.Rohrs@essington.nt.edu.au,8985 0100
Epenarra School,True,"N/A, Wutunugurra (Epenarra), NT","PMB 270, via Alice Springs, 0861, NT",jennifer.cadzow@education.nt.gov.au,(08) 8964 1512,n/a,Jennifer Cadzow,Principal,jennifer.cadzow@education.nt.gov.au,(08) 8964 1512
Elliott School,True,"91 Bray St, Elliott, NT","C/- Elliott Post Office, Elliott, 0862, NT",kevin.gaskin@education.nt.gov.au,(08) 8969 2122,n/a,Kevin Gaskin,Principal,kevin.gaskin@education.nt.gov.au,(08) 8969 2122
Durack Primary School,True,"50 Woodlake Bvd, Durack, 0830, NT","PO Box  225, PALMERSTON, 0830, NT",durack.school@education.nt.gov.au,(08) 899 77555,http://www.durackschool.nt.edu.au,Cindy McLaren,Principal,Cindy.McLaren@education.nt.gov.au,(08) 899 77555
Durack Pre School,False,"50 Woodlake Blvd, Durack, NT",", , , ",,(08) 899 77555,,Cindy McLaren,Principal,Cindy.McLaren@education.nt.gov.au,(08) 899 77555
Dundee Beach School,True,"500 Namarada Dr, Dundee Beach, NT","PO Box 145, Dundee Beach, 0840, NT",dundee.school@education.nt.gov.au,(08) 8978 2212,n/a,Paul Riches,Principal,paul.riches@education.nt.gov.au,(08) 8978 2212
Driver Pre School,False,"37 Driver Ave, Driver, NT",", , , ",,(08) 893 59055,,Paul Riches,Principal,paul.riches@education.nt.gov.au,(08) 8978 2212
Driver Primary School,True,"37 Driver Ave, Driver, 0830, NT","PO Box  33, PALMERSTON, 0831, NT",admin.drivesch@education.nt.gov.au,(08) 893 59000,http://www.driverprimary.nt.edu.au,Warwick Peter-Budge,Principal,warwick.peter-budge@education.nt.gov.au,(08) 893 59000
Dripstone Middle School,False,"10 Delamere St, Tiwi, 0810, NT","PO Box  41370, CASUARINA, 0811, NT",dripstone.middle@education.nt.gov.au,(08) 898 37777,http://www.dripstonemiddle.nt.edu.au,Nektaria Pikoulos,Principal,nektaria.pikoulos@education.nt.gov.au,(08) 898 37777
Douglas Daly School,True,"Jungawa Rd, Douglas-Daly, NT","PMB 46, via Winnellie, 0822, NT",rosemary.sullivan@education.nt.gov.au,(08) 8978 2836,http://www.douglasdalyschool.nt.edu.au/,Rosemary Sullivan,Principal,rosemary.sullivan@education.nt.gov.au,(08) 8978 2836
Dhupuma Barker,True,"116 Gunyangara Rd, Gunyangara, 0880, NT","PO Box 394, Nhulunbuy, 0881, NT",apearce@barker.nsw.edu.au,(02) 8438 7435,https://barkerbarang.edu.au/about-our-schools/dhupuma-barker,Rosemary Sullivan,Principal,rosemary.sullivan@education.nt.gov.au,(08) 8978 2836
Darwin Middle School,False,"Atkins Drive, The Gardens, NT 0820, not available, NT","PO Box 2257, PARAP, 0804, NT",admin.darwinmiddle@education.nt.gov.au,(08) 894 25200,http://www.darwinmiddle.nt.edu.au,Brian Manning,Principal,brian.manning@education.nt.gov.au,(08) 894 25201
Darwin Languages Centre,False,"1 Nemarluk Dr, Ludmilla, NT, NT","P O Box 822, Nightcliff, 0814, NT",dlc.nt@education.nt.gov.au,(08) 899 77000,https://www.darwinlanguagescentre.nt.edu.au/,Kevin Northcote,Principal,kevin.northcote@education.nt.gov.au,(08) 899 77001
Darwin High School,False,"10 Atkins Dr, The Gardens, 0820, NT","Bullocky Point, DARWIN, 0820, NT",darwin.high@education.nt.gov.au,(08) 899 91222,http://www.darwinhigh.nt.edu.au,Houdeh Khole,Business Manager,houdeh.khoie@education.nt.gov.au,08 8999 1222
Clyde Fenton Primary School,True,"101 Giles St, Katherine, 0850, NT","PO Box 421, KATHERINE, 0851, NT",admin.clydesch@education.nt.gov.au,(08) 897 33844,https://cfs.nt.edu.au/,Jeff Parker,Principal,Jeff.parker@education.nt.gov.au,(08) 897 33844
Clyde Fenton Pre School,False,"101 Giles St, Katherine, NT",", , , ",,(08) 897 33855,,Jeff Parker,Principal,Jeff.parker@education.nt.gov.au,(08) 897 33844
Centralian Senior College,False,"10 Grevillea Drive, Alice Springs, 0870, NT","PO Box 4856, ALICE SPRINGS, 0871, NT",admin.centraliansc@education.nt.gov.au,(08) 895 85000,HTTP://centralianseniorcollege.com.au,Joanne Alford,Principal,joanne.alford@education.nt.gov.au,(08) 895 85000
Centralian Middle School,False,"56 Milner Rd, Alice Springs, 0870, NT","PO Box 1771, ALICE SPRINGS, 0871, NT",centralian.middle@education.nt.gov.au,(08) 895 52333,http://cms.nt.edu.au,Simon Rowlands,Principal,simon.rowlands@education.nt.gov.au,(08) 895 52333
Casuarina Senior College,False,"61 Parer Dr, Moil, 0810, NT","PO Box  40196, CASUARINA, 0811, NT",csc.admin@education.nt.gov.au,(08) 898 37300,http://www.casuarinaseniorcollege.com.au/,Geraldine Hogarth,Business Manager,geraldine.hogarth@education.nt.gov.au,(08) 898 37300
Casuarina Street Pre School,False,"Casuarina St, Katherine East, NT",", , , ",,(08) 897 33800,,Geraldine Hogarth,Business Manager,geraldine.hogarth@education.nt.gov.au,(08) 898 37300
Casuarina Street Primary School,True,"Casuarina St, Katherine East, 0850, NT","PO Box 1046, KATHERINE, 0851, NT",casuarina.admin@education.nt.gov.au,(08) 897 33800,https://casuarinastreet.com.au/,Renez Lammon,Principal,renez.lammon@education.nt.gov.au,(08) 897 33800
Canteen Creek School,True,"N/a, Canteen Creek, NT","PMB 105, via Alice Springs, 0872, NT",admin.cantesch@education.nt.gov.au,(08) 8964 1505,n/a,Natalie Law,Principal,natalie.law@education.nt.gov.au,(08) 8964 1505
Callistemon House,False,"80 Callistemon Dr, Katherine East, 0850, NT","PO Box 1971, Katherine East, 0851, NT",admin.callistemon@education.nt.gov.au,(08) 8972 3212,https://callistemonhouse.nt.edu.au/,Jayme Kot,Principal,jayme.kot@education.nt.gov.au,(08) 8972 3212
Bulman School,True,"N/A, Bulman, NT","PMB 13, Katherine, 0851, NT",irene.singleton@education.nt.gov.au,(08) 8975 4707,n/a,Irene Singleton,Principal,irene.singleton@education.nt.gov.au,(08) 8975 4707
Braitling Primary School,True,"80 Head St, Alice Springs, 0870, NT","PO Box  1669, ALICE SPRINGS, 0871, NT",admin.braitsch@education.nt.gov.au,(08) 895 85111,http://www.braitlingprimary.nt.edu.au,Belinda Pearson,Principal,belinda.pearson@education.nt.gov.au,(08) 895 85111
Bulla Camp School,True,"N/A, Bulla, NT","PMB 89, Katherine, 0851, NT",jenine.williams@education.nt.gov.au,(08) 9167 8957,n/a,Jenine Williams,Principal,jenine.williams@education.nt.gov.au,(08) 9167 8957
Bradshaw Pre School,False,"23 Adamson Ave, Alice Springs, NT",", , , ",,(08) 895 52100,,Jenine Williams,Principal,jenine.williams@education.nt.gov.au,(08) 9167 8957
Bradshaw Primary School,True,"23 Adamson Ave, Alice Springs, 0870, NT","PO Box 1744, ALICE SPRINGS, 0871, NT",bradshaw.school@education.nt.gov.au,(08) 895 52100,https://www.bradshawprimary.nt.edu.au/,Tim O'Sullivan,Principal,tim.osullivan@education.nt.gov.au,(08) 895 52100
Braitling Pre School,False,"80 Head St, Alice Springs, NT",", , , ",,(08) 8985 8511,,Tim O'Sullivan,Principal,tim.osullivan@education.nt.gov.au,(08) 895 52100
Berry Springs Primary School,True,"1150 Cox Peninsula Rd, Berry Springs, 0838, NT","PO Box 135, Berry Springs, 0838, NT",berrysprings.primary@education.nt.gov.au,(08) 8988 6006,http://berryspringsprimary.nt.edu.au/,Carlie Mamo,Principal,carlie.mamo@education.nt.gov.au,(08) 8988 6006
Borroloola School,True,"321 Robinson Rd, Borroloola, 0854, NT","PMB 5, Borroloola, 0854, NT",admin.borrosch@education.nt.gov.au,(08) 896 51800,https://www.borroloolaschool.nt.edu.au/,Keely Wallace,Business Manager,keely.wallace1@education.nt.gov.au,(08) 897 25395
Borroloola Pre School,False,"321 Robinson Road, Borroloola, NT",", , , ",,(08) 89 758780,,Keely Wallace,Business Manager,keely.wallace1@education.nt.gov.au,(08) 897 25395
Bonya School,True,"Community ID 26, Orrtipa-Thurra (Bonya), NT","PMB 69, via Alice Springs, 0872, NT",billie.coupland@education.nt.gov.au,(08) 8956 6352,n/a,Saabina Luitel,Business Manager,Rebecca.Kellond@education.nt.gov.au,(08) 8956 6352
Berry Springs Pre School,False,"1150 Cox Peninsula Rd, Berry Springs, NT",", , , ",,(08) 8988 6006,,Saabina Luitel,Business Manager,Rebecca.Kellond@education.nt.gov.au,(08) 8956 6352
Bees Creek Pre School,False,"20 Sattler Cres, Freds Pass, NT",", , , ",,(08) 8983 3222,,Saabina Luitel,Business Manager,Rebecca.Kellond@education.nt.gov.au,(08) 8956 6352
Alice Springs Steiner School,True,"Lot 9523 Ragonesi Rd, Alice Springs, 0870, NT","PO Box 2736, Alice Springs, 0871, NT",accounts@alicesteiner.nt.edu.au,(08) 8953 4578,http://www.alicesteiner.nt.edu.au/,Dina Fiek,Principal,principal@alicesteiner.nt.edu.au,8953 4578
Belyuen School,True,"N/A, Belyuen, NT","PMB 2, GPO Darwin, 0801, NT",natasha.koroi@education.nt.gov.au,(08) 8978 5085,n/a,Natasha Koroi,Principal,natasha.koroi@education.nt.gov.au,(08) 8978 5085
Alyangula Pre School,False,"Cnr Flinders St & Ayawarra Cr, Alyangula, NT",", , , ",,(08) 8987 6366,,Natasha Koroi,Principal,natasha.koroi@education.nt.gov.au,(08) 8978 5085
Alpurrurulam School,True,"N/A, Alpurrurulam (Lake Nash), NT","PMB 46, Mt Isa, 4825, QLD",amelia.hill1@education.nt.gov.au,(07) 4748 4887,n/a,Amelia Hill,Principal,amelia.hill1@education.nt.gov.au,(07) 4748 4887
Alekarenge School,True,"N/A, Ali Curung (Warrabri), NT","LMB 161, via Alice Springs, 0872, NT",admin.alekacec@education.nt.gov.au,(08) 8964 1957,not available,Lauren Walker,Principal,lauren.walker2@education.nt.gov.au,(08) 8964 1957
Alcoota School,True,"N/A, Engawala (Alcoota Stn), NT","PMB 255,, via Alice Springs, 0872, NT",matthew.paterson1@education.nt.gov.au,(08) 8956 9977,n/a,Matthew Paterson,Principal,matthew.paterson1@education.nt.gov.au,(08) 8956 9977
Alice Springs Language Centre,False,"Milner Road, Alice SPrings, 0870, NT","PO Box 9045, Alice Springs, 0871, NT",admin.aslc@education.nt.gov.au,(08) 895 52366,http://www.alicespringslanguagecentre.com,Brenda Savage,Business Manager,brenda.savage1@education.nt.gov.au,(08) 895 52366
Batchelor Pre School,False,"71 Kirra Cres, Batchelor, NT",", , , ",,(08) 8976 0077,,Brenda Savage,Business Manager,brenda.savage1@education.nt.gov.au,(08) 895 52366
Alyarrmandumanja Umbakumba School,True,"N/A, Umbakumba, NT","PO Box 698, Alyangula, 0885, NT",admin.umbakumba@education.nt.gov.au,(08) 8987 6793,https://www.alyarrmandumanja.nt.edu.au/,Genevieve Wild,Principal,genevieve.wild@education.nt.gov.au,(08) 8987 6793
Alice Springs School Of The Air,True,"80 Head St, Alice Springs, 0870, NT","PO Box 1220, Alice Springs, 0871, NT",assoa@assoa.nt.edu.au,(08) 8951 6800,http://www.assoa.nt.edu.au/,Kerrie Russell,Principal,kerrie.russell@education.nt.gov.au,(08) 8951 6800
Bees Creek Primary School,True,"20 Sattler Cres, Freds Pass, NT","PO Box 1500, Coolalinga, 0839, NT",bees.creek@education.nt.gov.au,(08) 8983 3222,http://beescreekschool.com/,Wendy Jordan,Principal,wendy.jordan@education.nt.gov.au,(08) 8983 3222
Alawa Primary School,True,"27 Pett Street, Alawa, 0810, NT","PO Box 40446, Casuarina, 0811, NT",alawa.school@education.nt.gov.au,(08) 899 77666,http://www.alawaprimary.nt.edu.au,Sandy Cartwright,Principal,sandy.cartwright@education.nt.gov.au,(08) 899 77666
Alyangula Area School,True,"Cnr Flinders St & Ayawarra Cr, Alyangula, NT","PMB 3, Alyangula, Groote Eylandt, 0885, NT",alyangula.admin@education.nt.gov.au,(08) 8987 6366,http://www.alyangula.nt.edu.au,Mel Dougherty,Principal,mel.dougherty@education.nt.gov.au,(08) 8987 6366
Alawa Pre School,False,"27 Pett St, Alawa, NT",", , , ",,(08) 899 77666,,Mel Dougherty,Principal,mel.dougherty@education.nt.gov.au,(08) 8987 6366
Acacia Hill School,True,"80 Spearwood Rd, Alice Springs, 0870, NT","PO Box 435, ALICE SPRINGS, 0871, NT",acaciahill.school@education.nt.gov.au,(08) 895 52222,not available,Catherine Ashton,Principal,catherine.ashton@education.nt.gov.au,(08) 895 52222
Adelaide River School,True,"31 Memorial Tce, Adelaide River, 0846, NT","C/- Post Office, Adelaide River, 0846, NT",adelaideriver.ps@education.nt.gov.au,(08) 8976 7034,,Tony Clegg,Principal,tony.clegg@education.nt.gov.au,(08) 8976 7034
